sat00670
1 00670U 63038B   20046.85496822  .00000043  00000-0  58566-4 0  9990
2 00670  90.0542 331.2910 0041274 172.4354 187.7425 13.44323476763498
